IRIDIUM 116             
1 43072U 17083C   24261.94932667  .00000633  00000+0  21887-3 0  9996
2 43072  86.3967 228.2745 0002300  89.8532 270.2928 14.34224608352832
IRIDIUM 130             
1 43073U 17083D   24261.91761600  .00000972  00000+0  34003-3 0  9991
2 43073  86.3974 228.5008 0002252  91.0375 269.1079 14.34222860352777
IRIDIUM 151             
1 43074U 17083E   24261.96200824  .00000220  00000+0  71494-4 0  9995
2 43074  86.3965 228.3122 0002490  82.7108 277.4371 14.34211057352805
IRIDIUM 134             
1 43075U 17083F   24262.00006896  .00000066  00000+0  16678-4 0  9996
2 43075  86.3966 228.2958 0002215  92.2125 267.9325 14.34213958352774
IRIDIUM 137             
1 43076U 17083G   24261.94298415  .00000690  00000+0  23937-3 0  9997
2 43076  86.3969 228.3994 0002858  88.3486 271.8037 14.34221457352832
IRIDIUM 141             
1 43077U 17083H   24261.93664505  .00000418  00000+0  14213-3 0  9999
2 43077  86.3965 228.2688 0002227  86.4706 273.6744 14.34208098352833
IRIDIUM 153             
1 43078U 17083J   24261.88883496  .00001128  00000+0  39580-3 0  9999
2 43078  86.4035 196.8000 0002165  67.7327 292.4098 14.34215896353930
IRIDIUM 131             
1 43079U 17083K   24261.92395198  .00000925  00000+0  32305-3 0  9994
2 43079  86.3971 228.4177 0002429  86.1879 273.9594 14.34217600352766
